KUIPER-00008            
1 63724U 25088A   26196.50248219 -.00000112  00000+0  14330-4 0  9999
2 63724  51.8987 242.8188 0001056 160.7820 199.3182 14.79936293 66975
KUIPER-00009            
1 63725U 25088B   26196.91668981 -.00012963  00000+0 -16264-2 0  9991
2 63725  51.9012 258.5997 0000348  88.6038 252.0312 14.81149719  5393
KUIPER-00010            
1 63726U 25088C   26196.60919323  .00000284  00000+0  66268-4 0  9999
2 63726  51.9011 237.4509 0000353  98.0122 262.0881 14.79937648 66676
KUIPER-00011            
1 63727U 25088D   26196.49981776  .00000287  00000+0  66671-4 0  9999
2 63727  51.9002 245.4845 0000370  97.8346 262.2658 14.79928001 66681
KUIPER-00012            
1 63728U 25088E   26196.61726940  .00000432  00000+0  85659-4 0  9993
2 63728  51.9006 229.8998 0000365  80.8222 279.2782 14.79940761 66863
KUIPER-00013            
1 63729U 25088F   26196.48093564  .00000550  00000+0  10111-3 0  9999
2 63729  51.9018 263.0223 0000286 104.0854 256.0141 14.79939518 66499
KUIPER-00014            
1 63730U 25088G   26196.51469478 -.00000751  00000+0 -69566-4 0  9990
2 63730  51.9009 262.8169 0000455  77.2852 282.8161 14.79925115 66312
KUIPER-00015            
1 63731U 25088H   26196.40261860  .00000449  00000+0  87837-4 0  9997
2 63731  51.8996 273.3737 0000359  87.7892 272.3112 14.79928397 66616
KUIPER-00016            
1 63732U 25088J   26196.71459376  .00001551  00000+0  23238-3 0  9992
2 63732  51.8994 264.4463 0000487  84.9719 275.1299 14.79938786 66307
KUIPER-00018            
1 63733U 25088K   26196.35395227  .00000358  00000+0  76011-4 0  9999
2 63733  51.9031 256.0715 0000376  84.9490 275.1515 14.79935715 66390
KUIPER-00019            
1 63734U 25088L   26196.65073845  .00000488  00000+0  92940-4 0  9995
2 63734  51.9006 253.5169 0000421  83.1618 276.9392 14.79936788 66452
KUIPER-00020            
1 63735U 25088M   26196.48632061  .00000405  00000+0  82146-4 0  9994
2 63735  51.9013 257.9890 0000514  73.8826 286.2193 14.79908699 66587
KUIPER-00021            
1 63736U 25088N   26196.52008705  .00000308  00000+0  69391-4 0  9991
2 63736  51.9002 257.7954 0000427  93.9664 266.1347 14.79929930 66423
KUIPER-00023            
1 63737U 25088P   26196.48355087  .00000818  00000+0  13640-3 0  9996
2 63737  51.9005 260.4455 0000437  91.6357 268.4656 14.79901749 66683
KUIPER-00024            
1 63738U 25088Q   26196.63217905  .00000322  00000+0  71208-4 0  9995
2 63738  51.9027 247.3883 0000469  88.9750 271.1266 14.79928201 67005
KUIPER-00025            
1 63739U 25088R   26196.52280181  .00000681  00000+0  11828-3 0  9999
2 63739  51.9028 255.3529 0000328  61.7290 298.3705 14.79937203 66746
