{"fetched_at":"2026-07-16T06:42:31.905Z","source":"https://celestrak.org/NORAD/elements/gp.php?GROUP=kuiper&FORMAT=JSON","constellation":"kuiper","records":[{"OBJECT_NAME":"KUIPER-00008","OBJECT_ID":"2025-088A","EPOCH":"2026-07-15T12:03:34.461216","CLASSIFICATION_TYPE":"U","MEAN_MOTION":14.79936293,"ECCENTRICITY":0.0001056,"INCLINATION":51.8987,"RA_OF_ASC_NODE":242.8188,"ARG_OF_PERICENTER":160.782,"MEAN_ANOMALY":199.3182,"EPHEMERIS_TYPE":0,"NORAD_CAT_ID":63724,"ELEMENT_SET_NO":999,"REV_AT_EPOCH":6697,"BSTAR":0.00001433,"MEAN_MOTION_DOT":-0.00000112,"MEAN_MOTION_DDOT":0},{"OBJECT_NAME":"KUIPER-00009","OBJECT_ID":"2025-088B","EPOCH":"2026-07-15T22:00:01.999584","CLASSIFICATION_TYPE":"U","MEAN_MOTION":14.81149719,"ECCENTRICITY":0.00003489,"INCLINATION":51.9012,"RA_OF_ASC_NODE":258.5997,"ARG_OF_PERICENTER":88.6038,"MEAN_ANOMALY":252.0312,"EPHEMERIS_TYPE":0,"NORAD_CAT_ID":63725,"ELEMENT_SET_NO":999,"REV_AT_EPOCH":539,"BSTAR":-0.0016264374,"MEAN_MOTION_DOT":-0.00012963,"MEAN_MOTION_DDOT":0},{"OBJECT_NAME":"KUIPER-00010","OBJECT_ID":"2025-088C","EPOCH":"2026-07-15T14:37:14.295072","CLASSIFICATION_TYPE":"U","MEAN_MOTION":14.79937648,"ECCENTRICITY":0.00003535,"INCLINATION":51.9011,"RA_OF_ASC_NODE":237.4509,"ARG_OF_PERICENTER":98.0122,"MEAN_ANOMALY":262.0881,"EPHEMERIS_TYPE":0,"NORAD_CAT_ID":63726,"ELEMENT_SET_NO":999,"REV_AT_EPOCH":6667,"BSTAR":0.000066267526,"MEAN_MOTION_DOT":0.00000284,"MEAN_MOTION_DDOT":0},{"OBJECT_NAME":"KUIPER-00011","OBJECT_ID":"2025-088D","EPOCH":"2026-07-15T11:59:44.254464","CLASSIFICATION_TYPE":"U","MEAN_MOTION":14.79928001,"ECCENTRICITY":0.00003701,"INCLINATION":51.9002,"RA_OF_ASC_NODE":245.4845,"ARG_OF_PERICENTER":97.8346,"MEAN_ANOMALY":262.2658,"EPHEMERIS_TYPE":0,"NORAD_CAT_ID":63727,"ELEMENT_SET_NO":999,"REV_AT_EPOCH":6668,"BSTAR":0.000066671143,"MEAN_MOTION_DOT":0.00000287,"MEAN_MOTION_DDOT":0},{"OBJECT_NAME":"KUIPER-00012","OBJECT_ID":"2025-088E","EPOCH":"2026-07-15T14:48:52.076160","CLASSIFICATION_TYPE":"U","MEAN_MOTION":14.79940761,"ECCENTRICITY":0.00003655,"INCLINATION":51.9006,"RA_OF_ASC_NODE":229.8998,"ARG_OF_PERICENTER":80.8222,"MEAN_ANOMALY":279.2782,"EPHEMERIS_TYPE":0,"NORAD_CAT_ID":63728,"ELEMENT_SET_NO":999,"REV_AT_EPOCH":6686,"BSTAR":0.000085659448,"MEAN_MOTION_DOT":0.00000432,"MEAN_MOTION_DDOT":0},{"OBJECT_NAME":"KUIPER-00013","OBJECT_ID":"2025-088F","EPOCH":"2026-07-15T11:32:32.839296","CLASSIFICATION_TYPE":"U","MEAN_MOTION":14.79939518,"ECCENTRICITY":0.00002868,"INCLINATION":51.9018,"RA_OF_ASC_NODE":263.0223,"ARG_OF_PERICENTER":104.0854,"MEAN_ANOMALY":256.0141,"EPHEMERIS_TYPE":0,"NORAD_CAT_ID":63729,"ELEMENT_SET_NO":999,"REV_AT_EPOCH":6649,"BSTAR":0.00010110546,"MEAN_MOTION_DOT":0.0000055,"MEAN_MOTION_DDOT":0},{"OBJECT_NAME":"KUIPER-00014","OBJECT_ID":"2025-088G","EPOCH":"2026-07-15T12:21:09.628992","CLASSIFICATION_TYPE":"U","MEAN_MOTION":14.79925115,"ECCENTRICITY":0.0000455,"INCLINATION":51.9009,"RA_OF_ASC_NODE":262.8169,"ARG_OF_PERICENTER":77.2852,"MEAN_ANOMALY":282.8161,"EPHEMERIS_TYPE":0,"NORAD_CAT_ID":63730,"ELEMENT_SET_NO":999,"REV_AT_EPOCH":6631,"BSTAR":-0.000069566,"MEAN_MOTION_DOT":-0.00000751,"MEAN_MOTION_DDOT":0},{"OBJECT_NAME":"KUIPER-00015","OBJECT_ID":"2025-088H","EPOCH":"2026-07-15T09:39:46.247040","CLASSIFICATION_TYPE":"U","MEAN_MOTION":14.79928397,"ECCENTRICITY":0.00003594,"INCLINATION":51.8996,"RA_OF_ASC_NODE":273.3737,"ARG_OF_PERICENTER":87.7892,"MEAN_ANOMALY":272.3112,"EPHEMERIS_TYPE":0,"NORAD_CAT_ID":63731,"ELEMENT_SET_NO":999,"REV_AT_EPOCH":6661,"BSTAR":0.00008783678,"MEAN_MOTION_DOT":0.00000449,"MEAN_MOTION_DDOT":0},{"OBJECT_NAME":"KUIPER-00016","OBJECT_ID":"2025-088J","EPOCH":"2026-07-15T17:09:00.900864","CLASSIFICATION_TYPE":"U","MEAN_MOTION":14.79938786,"ECCENTRICITY":0.00004871,"INCLINATION":51.8994,"RA_OF_ASC_NODE":264.4463,"ARG_OF_PERICENTER":84.9719,"MEAN_ANOMALY":275.1299,"EPHEMERIS_TYPE":0,"NORAD_CAT_ID":63732,"ELEMENT_SET_NO":999,"REV_AT_EPOCH":6630,"BSTAR":0.00023237574,"MEAN_MOTION_DOT":0.00001551,"MEAN_MOTION_DDOT":0},{"OBJECT_NAME":"KUIPER-00018","OBJECT_ID":"2025-088K","EPOCH":"2026-07-15T08:29:41.476128","CLASSIFICATION_TYPE":"U","MEAN_MOTION":14.79935715,"ECCENTRICITY":0.00003762,"INCLINATION":51.9031,"RA_OF_ASC_NODE":256.0715,"ARG_OF_PERICENTER":84.949,"MEAN_ANOMALY":275.1515,"EPHEMERIS_TYPE":0,"NORAD_CAT_ID":63733,"ELEMENT_SET_NO":999,"REV_AT_EPOCH":6639,"BSTAR":0.000076010971,"MEAN_MOTION_DOT":0.00000358,"MEAN_MOTION_DDOT":0},{"OBJECT_NAME":"KUIPER-00019","OBJECT_ID":"2025-088L","EPOCH":"2026-07-15T15:37:03.802080","CLASSIFICATION_TYPE":"U","MEAN_MOTION":14.79936788,"ECCENTRICITY":0.00004211,"INCLINATION":51.9006,"RA_OF_ASC_NODE":253.5169,"ARG_OF_PERICENTER":83.1618,"MEAN_ANOMALY":276.9392,"EPHEMERIS_TYPE":0,"NORAD_CAT_ID":63734,"ELEMENT_SET_NO":999,"REV_AT_EPOCH":6645,"BSTAR":0.000092940042,"MEAN_MOTION_DOT":0.00000488,"MEAN_MOTION_DDOT":0},{"OBJECT_NAME":"KUIPER-00020","OBJECT_ID":"2025-088M","EPOCH":"2026-07-15T11:40:18.100704","CLASSIFICATION_TYPE":"U","MEAN_MOTION":14.79908699,"ECCENTRICITY":0.00005145,"INCLINATION":51.9013,"RA_OF_ASC_NODE":257.989,"ARG_OF_PERICENTER":73.8826,"MEAN_ANOMALY":286.2193,"EPHEMERIS_TYPE":0,"NORAD_CAT_ID":63735,"ELEMENT_SET_NO":999,"REV_AT_EPOCH":6658,"BSTAR":0.000082146377,"MEAN_MOTION_DOT":0.00000405,"MEAN_MOTION_DDOT":0},{"OBJECT_NAME":"KUIPER-00021","OBJECT_ID":"2025-088N","EPOCH":"2026-07-15T12:28:55.521120","CLASSIFICATION_TYPE":"U","MEAN_MOTION":14.7992993,"ECCENTRICITY":0.0000427,"INCLINATION":51.9002,"RA_OF_ASC_NODE":257.7954,"ARG_OF_PERICENTER":93.9664,"MEAN_ANOMALY":266.1347,"EPHEMERIS_TYPE":0,"NORAD_CAT_ID":63736,"ELEMENT_SET_NO":999,"REV_AT_EPOCH":6642,"BSTAR":0.000069391,"MEAN_MOTION_DOT":0.00000308,"MEAN_MOTION_DDOT":0},{"OBJECT_NAME":"KUIPER-00023","OBJECT_ID":"2025-088P","EPOCH":"2026-07-15T11:36:18.795168","CLASSIFICATION_TYPE":"U","MEAN_MOTION":14.79901749,"ECCENTRICITY":0.00004371,"INCLINATION":51.9005,"RA_OF_ASC_NODE":260.4455,"ARG_OF_PERICENTER":91.6357,"MEAN_ANOMALY":268.4656,"EPHEMERIS_TYPE":0,"NORAD_CAT_ID":63737,"ELEMENT_SET_NO":999,"REV_AT_EPOCH":6668,"BSTAR":0.00013640284,"MEAN_MOTION_DOT":0.00000818,"MEAN_MOTION_DDOT":0},{"OBJECT_NAME":"KUIPER-00024","OBJECT_ID":"2025-088Q","EPOCH":"2026-07-15T15:10:20.269920","CLASSIFICATION_TYPE":"U","MEAN_MOTION":14.79928201,"ECCENTRICITY":0.00004697,"INCLINATION":51.9027,"RA_OF_ASC_NODE":247.3883,"ARG_OF_PERICENTER":88.975,"MEAN_ANOMALY":271.1266,"EPHEMERIS_TYPE":0,"NORAD_CAT_ID":63738,"ELEMENT_SET_NO":999,"REV_AT_EPOCH":6700,"BSTAR":0.000071207653,"MEAN_MOTION_DOT":0.00000322,"MEAN_MOTION_DDOT":0},{"OBJECT_NAME":"KUIPER-00025","OBJECT_ID":"2025-088R","EPOCH":"2026-07-15T12:32:50.076384","CLASSIFICATION_TYPE":"U","MEAN_MOTION":14.79937203,"ECCENTRICITY":0.0000328,"INCLINATION":51.9028,"RA_OF_ASC_NODE":255.3529,"ARG_OF_PERICENTER":61.729,"MEAN_ANOMALY":298.3705,"EPHEMERIS_TYPE":0,"NORAD_CAT_ID":63739,"ELEMENT_SET_NO":999,"REV_AT_EPOCH":6674,"BSTAR":0.00011828,"MEAN_MOTION_DOT":0.00000681,"MEAN_MOTION_DDOT":0}]}
